CCSDS_OEM_VERS = 1.0
CREATION_DATE  = 2017-05-11T10:57:29
ORIGINATOR     = GMAT USER

META_START
OBJECT_NAME          = MOPSSat_alt_35785_km_RAAN_0_029
OBJECT_ID            = SatId
CENTER_NAME          = Earth
REF_FRAME            = EME2000
TIME_SYSTEM          = UTC
START_TIME           = 2017-01-01T00:00:00.000
USEABLE_START_TIME   = 2017-01-01T00:00:00.000
USEABLE_STOP_TIME    = 2017-01-02T00:00:00.000
STOP_TIME            = 2017-01-02T00:00:00.000
INTERPOLATION        = Lagrange
INTERPOLATION_DEGREE = 7 
META_STOP


                                                                                   

2017-01-01T06:06:40.000  -1.414203095041898e+03   4.213771686754902e+04   4.309310551512426e-02  -3.073153503443947e+00  -1.032683991609639e-01   2.649803594538910e-05
2017-01-01T06:06:50.000  -1.444934251528687e+03   4.213667297791121e+04   4.335825118282984e-02  -3.073077521494163e+00  -1.055095191787666e-01   2.653109708625962e-05
2017-01-01T06:07:00.000  -1.475664640332998e+03   4.213560667734108e+04   4.362372744927579e-02  -3.072999905045395e+00  -1.077505832747599e-01   2.656415515264085e-05
2017-01-01T06:07:10.000  -1.506394245093930e+03   4.213451796640331e+04   4.388953428341449e-02  -3.072920654138563e+00  -1.099915902555860e-01   2.659721010857164e-05
2017-01-01T06:07:20.000  -1.537123049139519e+03   4.213340684568782e+04   4.415567165110980e-02  -3.072839768816424e+00  -1.122325389052020e-01   2.663026191775964e-05
2017-01-01T06:07:30.000  -1.567851035884645e+03   4.213227331579295e+04   4.442213951862099e-02  -3.072757249122350e+00  -1.144734280138975e-01   2.666331054400650e-05
2017-01-01T06:07:40.000  -1.598578188674268e+03   4.213111737733163e+04   4.468893785123591e-02  -3.072673095100778e+00  -1.167142563668629e-01   2.669635595103902e-05
2017-01-01T06:07:50.000  -1.629304491476859e+03   4.212993903090556e+04   4.495606661928966e-02  -3.072587306795329e+00  -1.189550227947588e-01   2.672939810325821e-05
2017-01-01T06:08:00.000  -1.660029928190989e+03   4.212873827713081e+04   4.522352579214913e-02  -3.072499884250675e+00  -1.211957261231473e-01   2.676243696498896e-05
2017-01-01T06:08:10.000  -1.690754482802121e+03   4.212751511663254e+04   4.549131533956683e-02  -3.072410827512146e+00  -1.234363651839273e-01   2.679547250065193e-05
2017-01-01T06:08:20.000  -1.721478138984583e+03   4.212626955005762e+04   4.575943522825858e-02  -3.072320136626661e+00  -1.256769387863069e-01   2.682850467432344e-05
2017-01-01T06:08:30.000  -1.752200880397127e+03   4.212500157806617e+04   4.602788542443141e-02  -3.072227811642099e+00  -1.279174457383580e-01   2.686153345006660e-05
2017-01-01T06:08:40.000  -1.782922690682885e+03   4.212371120133022e+04   4.629666589380185e-02  -3.072133852607213e+00  -1.301578848470129e-01   2.689455879192563e-05
2017-01-01T06:08:50.000  -1.813643553174103e+03   4.212239842054917e+04   4.656577659896784e-02  -3.072038259572750e+00  -1.323982548965317e-01   2.692758066362690e-05
2017-01-01T06:09:00.000  -1.844363451289918e+03   4.212106323643016e+04   4.683521750293124e-02  -3.071941032590020e+00  -1.346385546775107e-01   2.696059902898775e-05
2017-01-01T06:09:10.000  -1.875082368376678e+03   4.211970564969562e+04   4.710498856768933e-02  -3.071842171711449e+00  -1.368787829752370e-01   2.699361385175189e-05
2017-01-01T06:09:20.000  -1.905800288412775e+03   4.211832566105219e+04   4.737508976042378e-02  -3.071741676988315e+00  -1.391189386210911e-01   2.702662509632649e-05
2017-01-01T06:09:30.000  -1.936517195302043e+03   4.211692327122156e+04   4.764552104729905e-02  -3.071639548472999e+00  -1.413590204410149e-01   2.705963272704316e-05
2017-01-01T06:09:40.000  -1.967233073056164e+03   4.211549848093287e+04   4.791628239505993e-02  -3.071535786218416e+00  -1.435990272688153e-01   2.709263670834661e-05
2017-01-01T06:09:50.000  -1.997947905304125e+03   4.211405129094276e+04   4.818737376674557e-02  -3.071430390279494e+00  -1.458389579103901e-01   2.712563700428785e-05
2017-01-01T06:10:00.000  -2.028661675697066e+03   4.211258170201931e+04   4.845879512522031e-02  -3.071323360711990e+00  -1.480788111732520e-01   2.715863357893893e-05
2017-01-01T06:10:10.000  -2.059374367817917e+03   4.211108971494524e+04   4.873054643238749e-02  -3.071214697572735e+00  -1.503185858599391e-01   2.719162639630326e-05
2017-01-01T06:10:20.000  -2.090085965206042e+03   4.210957533051874e+04   4.900262764938134e-02  -3.071104400919682e+00  -1.525582807698119e-01   2.722461542032187e-05
2017-01-01T06:10:30.000  -2.120796451387764e+03   4.210803854955046e+04   4.927503873685800e-02  -3.070992470811696e+00  -1.547978947012792e-01   2.725760061492647e-05
2017-01-01T06:10:40.000  -2.151505809887463e+03   4.210647937286314e+04   4.954777965509100e-02  -3.070878907308526e+00  -1.570374264526083e-01   2.729058194404403e-05
2017-01-01T06:10:50.000  -2.182214024337446e+03   4.210489780128676e+04   4.982085036493582e-02  -3.070763710470446e+00  -1.592768748299362e-01   2.732355937173522e-05
2017-01-01T06:11:00.000  -2.212921078404685e+03   4.210329383566140e+04   5.009425082719329e-02  -3.070646880358470e+00  -1.615162386419276e-01   2.735653286209529e-05
2017-01-01T06:11:10.000  -2.243626955790845e+03   4.210166747683739e+04   5.036798100260669e-02  -3.070528417034358e+00  -1.637555166997770e-01   2.738950237926148e-05
2017-01-01T06:11:20.000  -2.274331640305444e+03   4.210001872567050e+04   5.064204085252699e-02  -3.070408320560276e+00  -1.659947078225439e-01   2.742246788747155e-05
2017-01-01T06:11:30.000  -2.305035115756102e+03   4.209834758302863e+04   5.091643033792467e-02  -3.070286590999256e+00  -1.682338108291485e-01   2.745542935096595e-05
2017-01-01T06:11:40.000  -2.335737365937469e+03   4.209665404979231e+04   5.119114941928789e-02  -3.070163228415272e+00  -1.704728245375652e-01   2.748838673396881e-05
2017-01-01T06:11:50.000  -2.366438374600591e+03   4.209493812685511e+04   5.146619805636991e-02  -3.070038232873240e+00  -1.727117477625879e-01   2.752134000067397e-05
2017-01-01T06:12:00.000  -2.397138125428467e+03   4.209319981512677e+04   5.174157620794421e-02  -3.069911604439255e+00  -1.749505793140474e-01   2.755428911520008e-05
2017-01-01T06:12:10.000  -2.427836602126304e+03   4.209143911552725e+04   5.201728383262462e-02  -3.069783343180159e+00  -1.771893180033943e-01   2.758723404169381e-05
2017-01-01T06:12:20.000  -2.458533788017166e+03   4.208965602901222e+04   5.229332088520007e-02  -3.069653449165400e+00  -1.794279626142095e-01   2.762017474387946e-05
2017-01-01T06:12:30.000  -2.489229666532015e+03   4.208785055654285e+04   5.256968732106867e-02  -3.069521922464819e+00  -1.816665119379428e-01   2.765311118560083e-05
2017-01-01T06:12:40.000  -2.519924221027481e+03   4.208602269909657e+04   5.284638309459282e-02  -3.069388763149456e+00  -1.839049647606223e-01   2.768604333062072e-05
2017-01-01T06:12:50.000  -2.550617435491937e+03   4.208417245762558e+04   5.312340816545972e-02  -3.069253971288503e+00  -1.861433199143469e-01   2.771897114339093e-05
2017-01-01T06:13:00.000  -2.581309293841205e+03   4.208229983309812e+04   5.340076249233987e-02  -3.069117546952329e+00  -1.883815762259241e-01   2.775189458828481e-05
2017-01-01T06:13:10.000  -2.611999780078184e+03   4.208040482648959e+04   5.367844603431771e-02  -3.068979490211821e+00  -1.906197325285115e-01   2.778481362977230e-05
2017-01-01T06:13:20.000  -2.642688877895187e+03   4.207848743880394e+04   5.395645874734108e-02  -3.068839801139952e+00  -1.928577876326157e-01   2.781772823198527e-05
2017-01-01T06:13:30.000  -2.673376570969241e+03   4.207654767105865e+04   5.423480058684445e-02  -3.068698479810680e+00  -1.950957403476284e-01   2.785063835904172e-05
2017-01-01T06:13:40.000  -2.704062842962020e+03   4.207458552428354e+04   5.451347150776705e-02  -3.068555526298861e+00  -1.973335894818215e-01   2.788354397504394e-05
2017-01-01T06:13:50.000  -2.734747677224986e+03   4.207260099954246e+04   5.479247146182992e-02  -3.068410940681837e+00  -1.995713338208432e-01   2.791644504376557e-05
2017-01-01T06:14:00.000  -2.765431057196637e+03   4.207059409790524e+04   5.507180040118636e-02  -3.068264723037380e+00  -2.018089721566892e-01   2.794934152907489e-05
2017-01-01T06:14:10.000  -2.796112966246009e+03   4.206856482045830e+04   5.535145827698951e-02  -3.068116873444478e+00  -2.040465032762883e-01   2.798223339476660e-05
2017-01-01T06:14:20.000  -2.826793388365068e+03   4.206651316825903e+04   5.563144504570103e-02  -3.067967391980005e+00  -2.062839260119982e-01   2.801512060530746e-05
2017-01-01T06:14:30.000  -2.857472307476320e+03   4.206443914238127e+04   5.591176066278578e-02  -3.067816278722030e+00  -2.085212391911097e-01   2.804800312508959e-05
2017-01-01T06:14:40.000  -2.888149707589388e+03   4.206234274390541e+04   5.619240508413108e-02  -3.067663533749105e+00  -2.107584416472669e-01   2.808088091860127e-05
2017-01-01T06:14:50.000  -2.918825572403503e+03   4.206022397394245e+04   5.647337826245764e-02  -3.067509157142011e+00  -2.129955321914775e-01   2.811375394998916e-05
2017-01-01T06:15:00.000  -2.949499885602701e+03   4.205808283361699e+04   5.675468014997156e-02  -3.067353148982523e+00  -2.152325096336406e-01   2.814662218338762e-05
2017-01-01T06:15:10.000  -2.980172630855745e+03   4.205591932406605e+04   5.703631069838226e-02  -3.067195509353322e+00  -2.174693727825412e-01   2.817948558291328e-05
2017-01-01T06:15:20.000  -3.010843791521417e+03   4.205373344646279e+04   5.731826985615129e-02  -3.067036238339723e+00  -2.197061204243577e-01   2.821234411236755e-05
2017-01-01T06:15:30.000  -3.041513351045570e+03   4.205152520198574e+04   5.760055757218093e-02  -3.066875336027430e+00  -2.219427513516184e-01   2.824519773564334e-05
2017-01-01T06:15:40.000  -3.072181292801736e+03   4.204929459183067e+04   5.788317379433890e-02  -3.066712802503413e+00  -2.241792643515767e-01   2.827804641656130e-05
